FALCONSAT-6             
1 43815U 18099BK  26068.72544389  .00005029  00000+0  19477-3 0  9998
2 43815  97.3865 145.8165 0014370 297.0944 181.0714 15.26532865398556
STARLINK-34129          
1 64138U 25111R   26068.44603653  .00026847  00000+0  98116-3 0  9999
2 64138  43.0005  79.4557 0001467 268.7528  91.3156 15.27593456 45471
